[{"OBJECT_NAME":"ONEWEB-0033","OBJECT_ID":"2020-008M","EPOCH":"2026-04-29T04:25:02.050464","MEAN_MOTION":13.10370373,"ECCENTRICITY":0.0001804,"INCLINATION":87.8848,"RA_OF_ASC_NODE":46.0294,"ARG_OF_PERICENTER":62.824,"MEAN_ANOMALY":297.3072,"EPHEMERIS_TYPE":0,"CLASSIFICATION_TYPE":"U","NORAD_CAT_ID":45142,"ELEMENT_SET_NO":999,"REV_AT_EPOCH":30179,"BSTAR":0.00022843,"MEAN_MOTION_DOT":9.2e-07,"MEAN_MOTION_DDOT":0.0},{"OBJECT_NAME":"ONEWEB-0035","OBJECT_ID":"2020-008N","EPOCH":"2026-04-29T05:07:32.622528","MEAN_MOTION":13.1086714,"ECCENTRICITY":0.0001848,"INCLINATION":87.8851,"RA_OF_ASC_NODE":46.0208,"ARG_OF_PERICENTER":74.1395,"MEAN_ANOMALY":285.9937,"EPHEMERIS_TYPE":0,"CLASSIFICATION_TYPE":"U","NORAD_CAT_ID":45143,"ELEMENT_SET_NO":999,"REV_AT_EPOCH":30152,"BSTAR":0.0092765,"MEAN_MOTION_DOT":3.275e-05,"MEAN_MOTION_DDOT":0.0},{"OBJECT_NAME":"ONEWEB-0036","OBJECT_ID":"2020-008P","EPOCH":"2026-04-29T05:40:02.145216","MEAN_MOTION":13.09825031,"ECCENTRICITY":0.0001856,"INCLINATION":87.8869,"RA_OF_ASC_NODE":46.0057,"ARG_OF_PERICENTER":85.5596,"MEAN_ANOMALY":274.5743,"EPHEMERIS_TYPE":0,"CLASSIFICATION_TYPE":"U","NORAD_CAT_ID":45144,"ELEMENT_SET_NO":999,"REV_AT_EPOCH":30195,"BSTAR":0.0025546999999999996,"MEAN_MOTION_DOT":8.97e-06,"MEAN_MOTION_DDOT":0.0},{"OBJECT_NAME":"ONEWEB-0038","OBJECT_ID":"2020-008Q","EPOCH":"2026-04-29T04:28:21.171360","MEAN_MOTION":13.11419984,"ECCENTRICITY":0.0003418,"INCLINATION":87.8941,"RA_OF_ASC_NODE":30.8129,"ARG_OF_PERICENTER":64.5948,"MEAN_ANOMALY":295.5533,"EPHEMERIS_TYPE":0,"CLASSIFICATION_TYPE":"U","NORAD_CAT_ID":45145,"ELEMENT_SET_NO":999,"REV_AT_EPOCH":30390,"BSTAR":0.00025226,"MEAN_MOTION_DOT":1.02e-06,"MEAN_MOTION_DDOT":0.0},{"OBJECT_NAME":"ONEWEB-0039","OBJECT_ID":"2020-008R","EPOCH":"2026-04-29T06:19:45.061536","MEAN_MOTION":13.10369335,"ECCENTRICITY":0.0002207,"INCLINATION":87.8854,"RA_OF_ASC_NODE":46.0018,"ARG_OF_PERICENTER":89.7634,"MEAN_ANOMALY":270.3747,"EPHEMERIS_TYPE":0,"CLASSIFICATION_TYPE":"U","NORAD_CAT_ID":45146,"ELEMENT_SET_NO":999,"REV_AT_EPOCH":30175,"BSTAR":0.00023709,"MEAN_MOTION_DOT":9.5e-07,"MEAN_MOTION_DDOT":0.0},{"OBJECT_NAME":"ONEWEB-0040","OBJECT_ID":"2020-008S","EPOCH":"2026-04-29T06:10:12.076608","MEAN_MOTION":13.10370229,"ECCENTRICITY":0.0001956,"INCLINATION":87.8848,"RA_OF_ASC_NODE":46.0156,"ARG_OF_PERICENTER":77.9496,"MEAN_ANOMALY":282.185,"EPHEMERIS_TYPE":0,"CLASSIFICATION_TYPE":"U","NORAD_CAT_ID":45147,"ELEMENT_SET_NO":999,"REV_AT_EPOCH":30145,"BSTAR":0.0011694000000000001,"MEAN_MOTION_DOT":4.21e-06,"MEAN_MOTION_DDOT":0.0},{"OBJECT_NAME":"ONEWEB-0043","OBJECT_ID":"2020-008U","EPOCH":"2026-04-29T06:12:35.012448","MEAN_MOTION":13.10369468,"ECCENTRICITY":0.0002252,"INCLINATION":87.8855,"RA_OF_ASC_NODE":46.0011,"ARG_OF_PERICENTER":91.3619,"MEAN_ANOMALY":268.7767,"EPHEMERIS_TYPE":0,"CLASSIFICATION_TYPE":"U","NORAD_CAT_ID":45149,"ELEMENT_SET_NO":999,"REV_AT_EPOCH":30177,"BSTAR":0.0009055900000000001,"MEAN_MOTION_DOT":3.29e-06,"MEAN_MOTION_DDOT":0.0},{"OBJECT_NAME":"ONEWEB-0044","OBJECT_ID":"2020-008V","EPOCH":"2026-04-29T05:03:15.603264","MEAN_MOTION":13.10374459,"ECCENTRICITY":0.0002056,"INCLINATION":87.8861,"RA_OF_ASC_NODE":46.0083,"ARG_OF_PERICENTER":81.6114,"MEAN_ANOMALY":278.5247,"EPHEMERIS_TYPE":0,"CLASSIFICATION_TYPE":"U","NORAD_CAT_ID":45150,"ELEMENT_SET_NO":999,"REV_AT_EPOCH":30206,"BSTAR":-0.0017801,"MEAN_MOTION_DOT":-6.09e-06,"MEAN_MOTION_DDOT":0.0},{"OBJECT_NAME":"ONEWEB-0045","OBJECT_ID":"2020-008W","EPOCH":"2026-04-29T04:20:49.325280","MEAN_MOTION":13.11420084,"ECCENTRICITY":0.0001935,"INCLINATION":87.8936,"RA_OF_ASC_NODE":30.7992,"ARG_OF_PERICENTER":79.9674,"MEAN_ANOMALY":280.1672,"EPHEMERIS_TYPE":0,"CLASSIFICATION_TYPE":"U","NORAD_CAT_ID":45151,"ELEMENT_SET_NO":999,"REV_AT_EPOCH":30398,"BSTAR":-0.00030001,"MEAN_MOTION_DOT":-9.4e-07,"MEAN_MOTION_DDOT":0.0},{"OBJECT_NAME":"ONEWEB-0047","OBJECT_ID":"2020-008X","EPOCH":"2026-04-29T04:53:41.193600","MEAN_MOTION":13.10372388,"ECCENTRICITY":0.0001932,"INCLINATION":87.8856,"RA_OF_ASC_NODE":46.0097,"ARG_OF_PERICENTER":73.3289,"MEAN_ANOMALY":286.805,"EPHEMERIS_TYPE":0,"CLASSIFICATION_TYPE":"U","NORAD_CAT_ID":45152,"ELEMENT_SET_NO":999,"REV_AT_EPOCH":30178,"BSTAR":-0.0017135,"MEAN_MOTION_DOT":-5.85e-06,"MEAN_MOTION_DDOT":0.0},{"OBJECT_NAME":"ONEWEB-0048","OBJECT_ID":"2020-008Y","EPOCH":"2026-04-29T04:46:30.863712","MEAN_MOTION":13.10370507,"ECCENTRICITY":0.0001918,"INCLINATION":87.8851,"RA_OF_ASC_NODE":46.0355,"ARG_OF_PERICENTER":76.9444,"MEAN_ANOMALY":283.1897,"EPHEMERIS_TYPE":0,"CLASSIFICATION_TYPE":"U","NORAD_CAT_ID":45153,"ELEMENT_SET_NO":999,"REV_AT_EPOCH":30139,"BSTAR":-0.0014056,"MEAN_MOTION_DOT":-4.78e-06,"MEAN_MOTION_DDOT":0.0},{"OBJECT_NAME":"ONEWEB-0049","OBJECT_ID":"2020-008Z","EPOCH":"2026-04-29T04:51:06.164352","MEAN_MOTION":13.10372063,"ECCENTRICITY":0.0001634,"INCLINATION":87.8853,"RA_OF_ASC_NODE":46.0231,"ARG_OF_PERICENTER":91.2405,"MEAN_ANOMALY":268.891,"EPHEMERIS_TYPE":0,"CLASSIFICATION_TYPE":"U","NORAD_CAT_ID":45154,"ELEMENT_SET_NO":999,"REV_AT_EPOCH":30161,"BSTAR":-0.0017078,"MEAN_MOTION_DOT":-5.83e-06,"MEAN_MOTION_DDOT":0.0},{"OBJECT_NAME":"ONEWEB-0051","OBJECT_ID":"2020-008AA","EPOCH":"2026-04-29T04:18:21.855168","MEAN_MOTION":13.11416437,"ECCENTRICITY":0.0001873,"INCLINATION":87.8928,"RA_OF_ASC_NODE":30.8105,"ARG_OF_PERICENTER":79.5807,"MEAN_ANOMALY":280.5532,"EPHEMERIS_TYPE":0,"CLASSIFICATION_TYPE":"U","NORAD_CAT_ID":45155,"ELEMENT_SET_NO":999,"REV_AT_EPOCH":30466,"BSTAR":-0.00045947,"MEAN_MOTION_DOT":-1.5e-06,"MEAN_MOTION_DDOT":0.0},{"OBJECT_NAME":"ONEWEB-0052","OBJECT_ID":"2020-008AB","EPOCH":"2026-04-29T05:20:38.821920","MEAN_MOTION":13.10497523,"ECCENTRICITY":0.0001691,"INCLINATION":87.8858,"RA_OF_ASC_NODE":46.0043,"ARG_OF_PERICENTER":91.8183,"MEAN_ANOMALY":268.3138,"EPHEMERIS_TYPE":0,"CLASSIFICATION_TYPE":"U","NORAD_CAT_ID":45156,"ELEMENT_SET_NO":999,"REV_AT_EPOCH":30152,"BSTAR":-0.00020437,"MEAN_MOTION_DOT":-5.9e-07,"MEAN_MOTION_DDOT":0.0},{"OBJECT_NAME":"ONEWEB-0053","OBJECT_ID":"2020-008AC","EPOCH":"2026-04-29T04:17:51.775872","MEAN_MOTION":13.10371072,"ECCENTRICITY":0.0002097,"INCLINATION":87.885,"RA_OF_ASC_NODE":46.0365,"ARG_OF_PERICENTER":93.2402,"MEAN_ANOMALY":266.8965,"EPHEMERIS_TYPE":0,"CLASSIFICATION_TYPE":"U","NORAD_CAT_ID":45157,"ELEMENT_SET_NO":999,"REV_AT_EPOCH":30149,"BSTAR":0.0011109,"MEAN_MOTION_DOT":4e-06,"MEAN_MOTION_DDOT":0.0},{"OBJECT_NAME":"ONEWEB-0054","OBJECT_ID":"2020-008AD","EPOCH":"2026-04-29T05:08:01.686624","MEAN_MOTION":13.10374422,"ECCENTRICITY":0.000182,"INCLINATION":87.8863,"RA_OF_ASC_NODE":46.008,"ARG_OF_PERICENTER":79.4331,"MEAN_ANOMALY":280.7001,"EPHEMERIS_TYPE":0,"CLASSIFICATION_TYPE":"U","NORAD_CAT_ID":45158,"ELEMENT_SET_NO":999,"REV_AT_EPOCH":30161,"BSTAR":-0.0014052000000000001,"MEAN_MOTION_DOT":-4.78e-06,"MEAN_MOTION_DDOT":0.0}]