ONEWEB-0033             
1 45142U 20008M   26119.18405151  .00000092  00000+0  22843-3 0  9992
2 45142  87.8848  46.0294 0001804  62.8240 297.3072 13.10370373301799
ONEWEB-0035             
1 45143U 20008N   26119.21357202  .00003275  00000+0  92765-2 0  9995
2 45143  87.8851  46.0208 0001848  74.1395 285.9937 13.10867140301521
ONEWEB-0036             
1 45144U 20008P   26119.23613594  .00000897  00000+0  25547-2 0  9998
2 45144  87.8869  46.0057 0001856  85.5596 274.5743 13.09825031301958
ONEWEB-0038             
1 45145U 20008Q   26119.18635615  .00000102  00000+0  25226-3 0  9995
2 45145  87.8941  30.8129 0003418  64.5948 295.5533 13.11419984303901
ONEWEB-0039             
1 45146U 20008R   26119.26371599  .00000095  00000+0  23709-3 0  9998
2 45146  87.8854  46.0018 0002207  89.7634 270.3747 13.10369335301759
ONEWEB-0040             
1 45147U 20008S   26119.25708422  .00000421  00000+0  11694-2 0  9999
2 45147  87.8848  46.0156 0001956  77.9496 282.1850 13.10370229301458
ONEWEB-0043             
1 45149U 20008U   26119.25873857  .00000329  00000+0  90559-3 0  9991
2 45149  87.8855  46.0011 0002252  91.3619 268.7767 13.10369468301770
ONEWEB-0044             
1 45150U 20008V   26119.21059726 -.00000609  00000+0 -17801-2 0  9991
2 45150  87.8861  46.0083 0002056  81.6114 278.5247 13.10374459302063
ONEWEB-0045             
1 45151U 20008W   26119.18112645 -.00000094  00000+0 -30001-3 0  9994
2 45151  87.8936  30.7992 0001935  79.9674 280.1672 13.11420084303982
ONEWEB-0047             
1 45152U 20008X   26119.20394900 -.00000585  00000+0 -17135-2 0  9991
2 45152  87.8856  46.0097 0001932  73.3289 286.8050 13.10372388301788
ONEWEB-0048             
1 45153U 20008Y   26119.19896833 -.00000478  00000+0 -14056-2 0  9992
2 45153  87.8851  46.0355 0001918  76.9444 283.1897 13.10370507301394
ONEWEB-0049             
1 45154U 20008Z   26119.20215468 -.00000583  00000+0 -17078-2 0  9998
2 45154  87.8853  46.0231 0001634  91.2405 268.8910 13.10372063301612
ONEWEB-0051             
1 45155U 20008AA  26119.17941962 -.00000150  00000+0 -45947-3 0  9997
2 45155  87.8928  30.8105 0001873  79.5807 280.5532 13.11416437304661
ONEWEB-0052             
1 45156U 20008AB  26119.22267155 -.00000059  00000+0 -20437-3 0  9994
2 45156  87.8858  46.0043 0001691  91.8183 268.3138 13.10497523301528
ONEWEB-0053             
1 45157U 20008AC  26119.17907148  .00000400  00000+0  11109-2 0  9995
2 45157  87.8850  46.0365 0002097  93.2402 266.8965 13.10371072301496
ONEWEB-0054             
1 45158U 20008AD  26119.21390841 -.00000478  00000+0 -14052-2 0  9994
2 45158  87.8863  46.0080 0001820  79.4331 280.7001 13.10374422301617
